[{"OBJECT_NAME":"STARLINK-36872","OBJECT_ID":"2026-037Z","EPOCH":"2026-03-06T14:00:01.000224","MEAN_MOTION":15.9213052,"ECCENTRICITY":0.0001342,"INCLINATION":42.9999,"RA_OF_ASC_NODE":217.4968,"ARG_OF_PERICENTER":273.5891,"MEAN_ANOMALY":331.7456,"EPHEMERIS_TYPE":0,"CLASSIFICATION_TYPE":"U","NORAD_CAT_ID":67955,"ELEMENT_SET_NO":999,"REV_AT_EPOCH":269,"BSTAR":-0.0049902787,"MEAN_MOTION_DOT":-0.01719752,"MEAN_MOTION_DDOT":0.00081717005},{"OBJECT_NAME":"STARLINK-36918","OBJECT_ID":"2026-037AA","EPOCH":"2026-03-06T14:00:01.000224","MEAN_MOTION":15.92240688,"ECCENTRICITY":0.00012388,"INCLINATION":43.0001,"RA_OF_ASC_NODE":217.4886,"ARG_OF_PERICENTER":273.7708,"MEAN_ANOMALY":334.8346,"EPHEMERIS_TYPE":0,"CLASSIFICATION_TYPE":"U","NORAD_CAT_ID":67956,"ELEMENT_SET_NO":999,"REV_AT_EPOCH":269,"BSTAR":-0.004987796,"MEAN_MOTION_DOT":-0.01728661,"MEAN_MOTION_DDOT":0.0008258962},{"OBJECT_NAME":"STARLINK-36829","OBJECT_ID":"2026-037AB","EPOCH":"2026-03-06T14:00:01.000224","MEAN_MOTION":15.92016897,"ECCENTRICITY":0.00013891,"INCLINATION":42.9998,"RA_OF_ASC_NODE":217.5056,"ARG_OF_PERICENTER":275.0131,"MEAN_ANOMALY":327.0123,"EPHEMERIS_TYPE":0,"CLASSIFICATION_TYPE":"U","NORAD_CAT_ID":67957,"ELEMENT_SET_NO":999,"REV_AT_EPOCH":269,"BSTAR":-0.0049787108,"MEAN_MOTION_DOT":-0.01705833,"MEAN_MOTION_DDOT":0.00080410808},{"OBJECT_NAME":"STARLINK-36799","OBJECT_ID":"2026-037AC","EPOCH":"2026-03-06T14:00:01.000224","MEAN_MOTION":15.92364585,"ECCENTRICITY":0.00014699,"INCLINATION":42.9997,"RA_OF_ASC_NODE":217.4817,"ARG_OF_PERICENTER":275.06,"MEAN_ANOMALY":336.4847,"EPHEMERIS_TYPE":0,"CLASSIFICATION_TYPE":"U","NORAD_CAT_ID":67958,"ELEMENT_SET_NO":999,"REV_AT_EPOCH":269,"BSTAR":-0.0049618796,"MEAN_MOTION_DOT":-0.01730864,"MEAN_MOTION_DDOT":0.00082884704},{"OBJECT_NAME":"STARLINK-36834","OBJECT_ID":"2026-037AD","EPOCH":"2026-03-06T14:00:01.000224","MEAN_MOTION":15.92578171,"ECCENTRICITY":0.00011836,"INCLINATION":42.9997,"RA_OF_ASC_NODE":217.4649,"ARG_OF_PERICENTER":267.715,"MEAN_ANOMALY":350.3288,"EPHEMERIS_TYPE":0,"CLASSIFICATION_TYPE":"U","NORAD_CAT_ID":67959,"ELEMENT_SET_NO":999,"REV_AT_EPOCH":269,"BSTAR":-0.004903091,"MEAN_MOTION_DOT":-0.0172953,"MEAN_MOTION_DDOT":0.00082940675},{"OBJECT_NAME":"STARLINK-36841","OBJECT_ID":"2026-037AE","EPOCH":"2026-03-06T14:00:01.000224","MEAN_MOTION":15.9248147,"ECCENTRICITY":0.0001276,"INCLINATION":42.9996,"RA_OF_ASC_NODE":217.4733,"ARG_OF_PERICENTER":273.9371,"MEAN_ANOMALY":340.7164,"EPHEMERIS_TYPE":0,"CLASSIFICATION_TYPE":"U","NORAD_CAT_ID":67960,"ELEMENT_SET_NO":999,"REV_AT_EPOCH":269,"BSTAR":-0.0049479685,"MEAN_MOTION_DOT":-0.01736475,"MEAN_MOTION_DDOT":0.00083477705},{"OBJECT_NAME":"STARLINK-36912","OBJECT_ID":"2026-038A","EPOCH":"2026-03-06T14:00:01.000224","MEAN_MOTION":15.97508368,"ECCENTRICITY":0.00012956,"INCLINATION":97.2757,"RA_OF_ASC_NODE":75.6221,"ARG_OF_PERICENTER":96.8251,"MEAN_ANOMALY":138.2021,"EPHEMERIS_TYPE":0,"CLASSIFICATION_TYPE":"U","NORAD_CAT_ID":67961,"ELEMENT_SET_NO":999,"REV_AT_EPOCH":269,"BSTAR":-0.0037070372,"MEAN_MOTION_DOT":-0.01622189,"MEAN_MOTION_DDOT":0.00078126366},{"OBJECT_NAME":"STARLINK-36881","OBJECT_ID":"2026-038B","EPOCH":"2026-03-06T14:00:01.000224","MEAN_MOTION":15.97582401,"ECCENTRICITY":0.00012327,"INCLINATION":97.2755,"RA_OF_ASC_NODE":75.6228,"ARG_OF_PERICENTER":95.0702,"MEAN_ANOMALY":142.0729,"EPHEMERIS_TYPE":0,"CLASSIFICATION_TYPE":"U","NORAD_CAT_ID":67962,"ELEMENT_SET_NO":999,"REV_AT_EPOCH":269,"BSTAR":-0.0036507068,"MEAN_MOTION_DOT":-0.0160423,"MEAN_MOTION_DDOT":0.00076586788},{"OBJECT_NAME":"STARLINK-36357","OBJECT_ID":"2026-038C","EPOCH":"2026-03-06T14:00:01.000224","MEAN_MOTION":15.97825588,"ECCENTRICITY":0.00013991,"INCLINATION":97.275,"RA_OF_ASC_NODE":75.6254,"ARG_OF_PERICENTER":95.5499,"MEAN_ANOMALY":147.2669,"EPHEMERIS_TYPE":0,"CLASSIFICATION_TYPE":"U","NORAD_CAT_ID":67963,"ELEMENT_SET_NO":999,"REV_AT_EPOCH":269,"BSTAR":-0.0035729955,"MEAN_MOTION_DOT":-0.01591369,"MEAN_MOTION_DDOT":0.00075649395},{"OBJECT_NAME":"STARLINK-36349","OBJECT_ID":"2026-038D","EPOCH":"2026-03-06T14:00:01.000224","MEAN_MOTION":15.97714056,"ECCENTRICITY":0.00013242,"INCLINATION":97.2749,"RA_OF_ASC_NODE":75.6237,"ARG_OF_PERICENTER":91.1714,"MEAN_ANOMALY":148.8047,"EPHEMERIS_TYPE":0,"CLASSIFICATION_TYPE":"U","NORAD_CAT_ID":67964,"ELEMENT_SET_NO":999,"REV_AT_EPOCH":269,"BSTAR":-0.0036556747,"MEAN_MOTION_DOT":-0.01617912,"MEAN_MOTION_DDOT":0.00077918353},{"OBJECT_NAME":"STARLINK-36806","OBJECT_ID":"2026-038E","EPOCH":"2026-03-06T14:00:01.000224","MEAN_MOTION":15.97974891,"ECCENTRICITY":0.00012716,"INCLINATION":97.2744,"RA_OF_ASC_NODE":75.6266,"ARG_OF_PERICENTER":91.8413,"MEAN_ANOMALY":154.2658,"EPHEMERIS_TYPE":0,"CLASSIFICATION_TYPE":"U","NORAD_CAT_ID":67965,"ELEMENT_SET_NO":999,"REV_AT_EPOCH":269,"BSTAR":-0.0035775116,"MEAN_MOTION_DOT":-0.01606315,"MEAN_MOTION_DDOT":0.00077102195},{"OBJECT_NAME":"STARLINK-36820","OBJECT_ID":"2026-038F","EPOCH":"2026-03-06T14:00:01.000224","MEAN_MOTION":15.98090436,"ECCENTRICITY":0.00012344,"INCLINATION":97.2745,"RA_OF_ASC_NODE":75.6278,"ARG_OF_PERICENTER":95.4422,"MEAN_ANOMALY":153.4233,"EPHEMERIS_TYPE":0,"CLASSIFICATION_TYPE":"U","NORAD_CAT_ID":67966,"ELEMENT_SET_NO":999,"REV_AT_EPOCH":269,"BSTAR":-0.0035313712,"MEAN_MOTION_DOT":-0.01595843,"MEAN_MOTION_DDOT":0.00076266297},{"OBJECT_NAME":"STARLINK-36819","OBJECT_ID":"2026-038G","EPOCH":"2026-03-06T14:00:01.000224","MEAN_MOTION":15.9821919,"ECCENTRICITY":0.00012641,"INCLINATION":97.2743,"RA_OF_ASC_NODE":75.629,"ARG_OF_PERICENTER":91.2978,"MEAN_ANOMALY":160.5395,"EPHEMERIS_TYPE":0,"CLASSIFICATION_TYPE":"U","NORAD_CAT_ID":67967,"ELEMENT_SET_NO":999,"REV_AT_EPOCH":269,"BSTAR":-0.0035139403,"MEAN_MOTION_DOT":-0.01599257,"MEAN_MOTION_DDOT":0.00076678557},{"OBJECT_NAME":"STARLINK-36812","OBJECT_ID":"2026-038H","EPOCH":"2026-03-06T14:00:01.000224","MEAN_MOTION":15.98326788,"ECCENTRICITY":0.00012133,"INCLINATION":97.2739,"RA_OF_ASC_NODE":75.6297,"ARG_OF_PERICENTER":96.2224,"MEAN_ANOMALY":158.1627,"EPHEMERIS_TYPE":0,"CLASSIFICATION_TYPE":"U","NORAD_CAT_ID":67968,"ELEMENT_SET_NO":999,"REV_AT_EPOCH":269,"BSTAR":-0.0034890102,"MEAN_MOTION_DOT":-0.01597393,"MEAN_MOTION_DDOT":0.0007660298},{"OBJECT_NAME":"STARLINK-36709","OBJECT_ID":"2026-038J","EPOCH":"2026-03-06T14:00:01.000224","MEAN_MOTION":15.98594766,"ECCENTRICITY":0.00012423,"INCLINATION":97.274,"RA_OF_ASC_NODE":75.6325,"ARG_OF_PERICENTER":107.2569,"MEAN_ANOMALY":153.2013,"EPHEMERIS_TYPE":0,"CLASSIFICATION_TYPE":"U","NORAD_CAT_ID":67969,"ELEMENT_SET_NO":999,"REV_AT_EPOCH":269,"BSTAR":-0.0034502321,"MEAN_MOTION_DOT":-0.01603203,"MEAN_MOTION_DDOT":0.00077350508},{"OBJECT_NAME":"STARLINK-36319","OBJECT_ID":"2026-038K","EPOCH":"2026-03-06T14:00:01.000224","MEAN_MOTION":15.98460502,"ECCENTRICITY":0.00012799,"INCLINATION":97.2739,"RA_OF_ASC_NODE":75.6309,"ARG_OF_PERICENTER":102.8975,"MEAN_ANOMALY":154.5002,"EPHEMERIS_TYPE":0,"CLASSIFICATION_TYPE":"U","NORAD_CAT_ID":67970,"ELEMENT_SET_NO":999,"REV_AT_EPOCH":266,"BSTAR":-0.0034718291,"MEAN_MOTION_DOT":-0.01601304,"MEAN_MOTION_DDOT":0.00077065679}]
